GLOBALSTAR M094         
1 39074U 13005C   26012.85617769 -.00000080  00000+0  13382-3 0  9990
2 39074  51.9952 263.7395 0001015  55.0097 305.0865 12.62265972598858
GLOBALSTAR M096         
1 39075U 13005D   26012.86915159 -.00000090  00000+0  78873-4 0  9994
2 39075  52.0094 312.3755 0000700  37.2344 322.8572 12.62269942597779
GLOBALSTAR M078         
1 39076U 13005E   26012.76389192  .00000011  00000+0  63894-3 0  9994
2 39076  51.9886  36.9212 0000524 281.5235  78.5572 12.62273919596381
GLOBALSTAR M095         
1 39077U 13005F   26012.79026802 -.00000099  00000+0  28444-4 0  9994
2 39077  52.0094  34.2245 0000245   5.9552 354.1318 12.62267749596242
GLOBALSTAR M087         
1 52888U 22064A   26012.80341693 -.00000089  00000+0  83406-4 0  9992
2 52888  51.9970 175.5108 0000996  83.4082 276.6898 12.62262321171518
